COSMOS 2419 (714)       
1 28915U 05050A   16195.05893309 -.00000054  00000-0  00000+0 0  9993
2 28915  65.3327  77.2913 0016355 353.8856 192.7006  2.13110830 82105
COSMOS 2425 (716)       
1 29670U 06062A   16195.05267207 -.00000065  00000-0  10000-3 0  9995
2 29670  65.6234 316.2861 0020115 348.4882 250.3615  2.13104937 74301
COSMOS 2426 (717)       
1 29671U 06062B   16195.09024814 -.00000065  00000-0  10000-3 0  9995
2 29671  65.6400 316.3668 0018405 161.7817 326.6165  2.13102907 74319
COSMOS 2424 (715)       
1 29672U 06062C   16194.65860458 -.00000064  00000-0  10000-3 0  9998
2 29672  65.6246 316.3090 0017825 160.8540 172.6555  2.13102318 74290
COSMOS 2433 (720)       
1 32275U 07052A   16195.20448293 -.00000053  00000-0  10000-3 0  9990
2 32275  65.3482  77.0570 0001910 296.0497 251.3106  2.13104709 67821
COSMOS 2432 (719)       
1 32276U 07052B   16194.36732429 -.00000056  00000-0  10000-3 0  9997
2 32276  65.3599  77.1513 0012449 342.0786 236.8061  2.13104256 67804
COSMOS 2434 (721)       
1 32393U 07065A   16194.65084185 -.00000065  00000-0  00000+0 0  9997
2 32393  65.2404 315.6098 0005529 115.2035 259.2555  2.13102828 66522
COSMOS 2436 (723)       
1 32395U 07065C   16195.45406126 -.00000066  00000-0  10000-3 0  9997
2 32395  65.2541 315.6262 0015816 358.1616   4.5240  2.13102890 66477
COSMOS 2443 (725)       
1 33379U 08046B   16194.45025253 -.00000056  00000-0  10000-3 0  9996
2 33379  65.2768  76.4965 0016385 182.7880  50.7448  2.13101400 60674
COSMOS 2456 (730)       
1 36111U 09070A   16195.45746322  .00000099  00000-0  00000+0 0  9990
2 36111  64.1829 195.1655 0006494 295.7180 147.2236  2.13102909 51201
COSMOS 2457 (733)       
1 36112U 09070B   16194.64391594  .00000095  00000-0  00000-0 0  9995
2 36112  64.1653 195.1197 0006855 190.3155 118.6279  2.13101587 51188
COSMOS 2458 (734)       
1 36113U 09070C   16195.22082332  .00000098  00000-0  10000-3 0  9995
2 36113  64.1707 195.1057 0002695 291.7890 147.3091  2.13101967 51200
COSMOS 2459 (731)       
1 36400U 10007A   16195.05318228 -.00000054  00000-0  10000-3 0  9996
2 36400  65.2560  76.2109 0029096 354.8099 301.6132  2.13102367 49541
COSMOS 2461 (735)       
1 36401U 10007B   16194.71798300 -.00000055  00000-0  10000-3 0  9993
2 36401  65.2497  76.2024 0007380  65.2511 244.5962  2.13102490 49533
COSMOS 2460 (732)       
1 36402U 10007C   16194.50513564 -.00000056  00000-0  10000-3 0  9999
2 36402  65.2392  76.1859 0001449  36.0902 152.2821  2.13101885 49539
COSMOS 2465 (737)       
1 37138U 10041B   16194.67589323 -.00000065  00000-0  00000+0 0  9993
2 37138  64.8411 315.7692 0036262 169.0932 268.5601  2.13093921 45614
COSMOS 2464 (736)       
1 37139U 10041C   16194.88647910 -.00000066  00000-0  00000+0 0  9995
2 37139  64.8472 315.7574 0021974  16.3072  46.6254  2.13102624 45625
COSMOS 2471 (701K)      
1 37372U 11009A   16195.27785397 -.00000052  00000-0  00000+0 0  9990
2 37372  65.2376  76.1095 0006780 236.5217 317.3255  2.13102756 41826
COSMOS 2474 (742)       
1 37829U 11055A   16194.71148763  .00000096  00000-0  00000-0 0  9994
2 37829  64.5073 195.6135 0010807 254.2449 197.7141  2.13101930 37181
COSMOS 2476 (744)       
1 37867U 11064A   16195.39497806  .00000100  00000-0  00000+0 0  9991
2 37867  64.4870 195.6716 0019741 248.5316  53.6259  2.13102018 36544
COSMOS 2477 (745)       
1 37868U 11064B   16195.06733402  .00000098  00000-0  00000+0 0  9997
2 37868  64.4954 195.7231 0017755 249.9724 340.1161  2.13101889 36497
COSMOS 2475 (743)       
1 37869U 11064C   16194.78096291  .00000096  00000-0  00000+0 0  9992
2 37869  64.5034 195.7212 0023086 273.4429  53.0906  2.13102061 36495
COSMOS 2485 (747)       
1 39155U 13019A   16195.40815770  .00000100  00000-0  00000+0 0  9991
2 39155  64.6566 195.6267 0019962 243.7708 113.6177  2.13102044 25013
COSMOS 2492 (754)       
1 39620U 14012A   16195.33144016 -.00000052  00000-0  10000-3 0  9994
2 39620  65.1275  76.1422 0015649 338.0734 353.7585  2.13103408 17964
COSMOS 2500 (755)       
1 40001U 14032A   16195.34084449 -.00000052  00000-0  00000+0 0  9990
2 40001  65.0689  76.1645 0004634 202.7380   0.0219  2.13103043 16184
COSMOS 2501 (702K)      
1 40315U 14075A   16195.03840676 -.00000066  00000-0  00000+0 0  9998
2 40315  64.6114 317.2018 0017218 230.9870 260.8427  2.13101626 12584
COSMOS 2514 (751)       
1 41330U 16008A   16195.02075579 -.00000055  00000-0  00000+0 0  9993
2 41330  64.8674  76.4055 0007766 215.6945 280.6009  2.13103596  3348
COSMOS 2516 (753)       
1 41554U 16032A   16194.61460119 -.00000065  00000-0  00000+0 0  9991
2 41554  64.7936 316.8994 0011236 215.9252 223.5269  2.13101494   942
